OBJECT_NAME,OBJECT_ID,EPOCH,MEAN_MOTION,ECCENTRICITY,INCLINATION,RA_OF_ASC_NODE,ARG_OF_PERICENTER,MEAN_ANOMALY,EPHEMERIS_TYPE,CLASSIFICATION_TYPE,NORAD_CAT_ID,ELEMENT_SET_NO,REV_AT_EPOCH,BSTAR,MEAN_MOTION_DOT,MEAN_MOTION_DDOT
EUTELSAT HOTBIRD 13F,2022-134A,2026-07-18T05:02:38.645664,1.00271225,.00018265,0.0538,285.3300,72.6965,26.6554,0,U,54048,999,1368,0,.79E-6,0
LDPE-2,2022-144A,2026-07-17T08:01:38.628768,1.00544505,.0002486,5.6696,63.2911,109.8930,113.9269,0,U,54219,999,1214,0,.4E-7,0
EUTELSAT HOTBIRD 13G,2022-146A,2026-07-18T06:26:39.069600,1.00271505,.00021123,0.0179,222.6735,312.7201,230.3634,0,U,54225,999,777,0,0,0
ZHONGXING-19,2022-148A,2026-07-18T07:25:07.861728,1.00270060,.00032671,0.0236,68.0309,68.6035,73.9553,0,U,54230,999,1369,0,0,0
GALAXY 31 (G-31),2022-153A,2026-07-18T05:10:38.483616,1.00272171,.00011125,0.0197,94.0188,25.6447,132.9990,0,U,54243,999,744,0,.5E-7,0
GALAXY 32 (G-32),2022-153B,2026-07-18T05:56:56.915808,1.00272391,.00013825,0.0126,53.9777,353.7293,246.5821,0,U,54244,999,1345,0,-.182E-5,0
EUTELSAT 10B,2022-157A,2026-07-17T13:19:04.629216,1.00266999,.0001588,0.0610,95.5067,12.3958,37.1964,0,U,54259,999,1333,0,.58E-6,0
GALAXY 35 (G-35),2022-170A,2026-07-18T05:56:19.476096,1.00272225,.00018927,0.0148,92.4022,24.1465,175.4713,0,U,54741,999,1320,0,-.17E-5,0
GALAXY 36 (G-36),2022-170B,2026-07-18T05:57:34.357248,1.00271825,.00026399,0.0180,141.7564,316.9702,197.7171,0,U,54742,999,1308,0,-.193E-5,0
METEOSAT-12 (MTG-I1),2022-170C,2026-07-18T06:22:46.939584,1.00268617,.00039431,0.7285,20.2726,81.3487,289.7853,0,U,54743,999,1329,0,-.17E-6,0
SHIJIAN-23 (SJ-23),2023-002A,2026-07-17T18:31:02.746848,1.00075758,.0003413,3.7942,77.9273,273.2206,349.4961,0,U,55131,999,1281,0,-.366E-5,0
APSTAR-6E,2023-005A,2026-07-18T05:18:28.363968,1.00268793,.00025614,0.0148,259.4452,292.9862,317.2070,0,U,55239,999,1900,0,0,0
USA 342,2023-008A,2026-07-15T08:20:54.831840,1.00268904,.0000237,0.0068,33.1422,23.5747,25.6345,0,U,55263,999,1279,0,0,0
LDPE-3A,2023-008B,2026-07-18T01:45:38.926944,0.99149102,.0001576,2.4266,81.2824,73.6047,293.5672,0,U,55264,999,1212,0,-.267E-5,0
ELEKTRO-L 4,2023-016A,2026-07-17T17:14:40.045920,1.00270712,.00015516,0.1143,278.6047,257.1818,184.1945,0,U,55506,999,1264,0,-.68E-6,0
AMAZONAS NEXUS,2023-017A,2026-07-17T12:58:59.053728,1.00269616,.000443,0.0358,45.2576,42.1268,341.7092,0,U,55508,999,734,0,-.292E-5,0
ZHONGXING-26,2023-023A,2026-07-18T00:07:46.964352,1.00269412,.00033543,0.0630,71.5970,30.7455,320.5235,0,U,55686,999,1253,0,-.362E-5,0
LUCH-5X (OLYMP-K 2),2023-031A,2026-07-17T18:32:31.221312,1.00279165,.0001133,0.0281,94.9892,207.6590,333.0511,0,U,55841,999,1224,0,.23E-6,0
GAOFEN-13 02,2023-036A,2026-07-18T03:39:53.126208,1.00273927,.00036468,1.0288,4.9726,337.7577,156.4589,0,U,55912,999,1240,0,-.226E-5,0
SES-18,2023-038A,2026-07-18T05:37:31.500768,1.00270582,.00007851,0.0457,246.5578,312.8113,77.9469,0,U,55970,999,1241,0,-.109E-5,0
SES-19,2023-038B,2026-07-18T05:26:38.615712,1.00271848,.00016798,0.0493,266.6484,215.7294,120.3946,0,U,55971,999,1240,0,.8E-6,0
INTELSAT 40E (IS-40E),2023-052A,2026-07-17T23:06:20.239200,1.00271641,.00023034,0.0136,93.3522,50.4952,47.5079,0,U,56174,999,1213,0,-.183E-5,0
VIASAT-3 F1,2023-060A,2026-07-18T05:57:34.357248,1.00271377,.00006286,0.0127,36.4787,53.9958,206.0169,0,U,56370,999,1174,0,0,0
ARCTURUS,2023-060B,2026-07-18T00:01:32.562912,1.00593433,.00011586,2.8509,79.5564,132.5216,186.3980,0,U,56371,999,1176,0,-.357E-5,0
GS-1,2023-060C,2026-07-17T18:49:47.604000,1.00266033,.00033444,2.8015,79.4677,280.0809,307.7517,0,U,56372,999,784,0,-.232E-5,0
BEIDOU-3 G4,2023-066A,2026-07-18T07:02:50.598816,1.00271695,.00049773,0.4580,339.8752,185.1329,16.8692,0,U,56564,999,1170,0,-.289E-5,0
ARABSAT-7B (BADR-8),2023-075A,2026-07-18T06:30:16.223040,1.00270565,.0003341,0.0734,30.3192,1.7363,27.5764,0,U,56757,999,1142,0,.136E-5,0
NVS-01 (IRNSS-1J),2023-076A,2026-07-18T06:59:50.886816,1.00277236,.00030644,2.0942,242.9282,20.1091,267.4536,0,U,56759,999,1142,0,-.343E-5,0
NUSANTARA TIGA (SATRIA),2023-086A,2026-07-17T13:07:38.548416,1.00268024,.0002101,0.0360,16.4967,320.1785,301.5827,0,U,57045,999,1006,0,-.245E-5,0
H2SAT (HEINRICH HERTZ),2023-093A,2026-07-18T02:18:38.678400,1.00270990,.00001682,0.0259,101.2408,31.9153,198.0918,0,U,57213,999,1122,0,-.7E-7,0
SYRACUSE 4B,2023-093B,2026-07-18T02:26:38.643360,1.00271740,.0000241,0.0189,56.3024,200.5939,69.2046,0,U,57214,999,727,0,-.62E-6,0
