EUTELSAT HOTBIRD 13F    
1 54048U 22134A   26199.21016951  .00000079  00000+0  00000+0 0  9999
2 54048   0.0538 285.3300 0001826  72.6965  26.6554  1.00271225 13688
LDPE-2                  
1 54219U 22144A   26198.33447487  .00000004  00000+0  00000+0 0  9992
2 54219   5.6696  63.2911 0002486 109.8930 113.9269  1.00544505 12140
EUTELSAT HOTBIRD 13G    
1 54225U 22146A   26199.26850775  .00000000  00000+0  00000+0 0  9998
2 54225   0.0179 222.6735 0002112 312.7201 230.3634  1.00271505  7779
ZHONGXING-19            
1 54230U 22148A   26199.30911877  .00000000  00000+0  00000+0 0  9992
2 54230   0.0236  68.0309 0003267  68.6035  73.9553  1.00270060 13696
GALAXY 31 (G-31)        
1 54243U 22153A   26199.21572319  .00000005  00000+0  00000+0 0  9991
2 54243   0.0197  94.0188 0001112  25.6447 132.9990  1.00272171  7449
GALAXY 32 (G-32)        
1 54244U 22153B   26199.24788097 -.00000182  00000+0  00000+0 0  9994
2 54244   0.0126  53.9777 0001382 353.7293 246.5821  1.00272391 13450
EUTELSAT 10B            
1 54259U 22157A   26198.55491469  .00000058  00000+0  00000+0 0  9992
2 54259   0.0610  95.5067 0001588  12.3958  37.1964  1.00266999 13338
GALAXY 35 (G-35)        
1 54741U 22170A   26199.24744764 -.00000170  00000+0  00000+0 0  9995
2 54741   0.0148  92.4022 0001892  24.1465 175.4713  1.00272225 13202
GALAXY 36 (G-36)        
1 54742U 22170B   26199.24831432 -.00000193  00000+0  00000+0 0  9990
2 54742   0.0180 141.7564 0002639 316.9702 197.7171  1.00271825 13080
METEOSAT-12 (MTG-I1)    
1 54743U 22170C   26199.26582106 -.00000017  00000+0  00000+0 0  9999
2 54743   0.7285  20.2726 0003943  81.3487 289.7853  1.00268617 13294
SHIJIAN-23 (SJ-23)      
1 55131U 23002A   26198.77155957 -.00000366  00000+0  00000+0 0  9998
2 55131   3.7942  77.9273 0003413 273.2206 349.4961  1.00075758 12811
APSTAR-6E               
1 55239U 23005A   26199.22116162  .00000000  00000+0  00000+0 0  9990
2 55239   0.0148 259.4452 0002561 292.9862 317.2070  1.00268793 19008
USA 342                 
1 55263U 23008A   26196.34785685  .00000000  00000+0  00000+0 0  9992
2 55263   0.0068  33.1422 0000237  23.5747  25.6345  1.00268904 12796
LDPE-3A                 
1 55264U 23008B   26199.07336721 -.00000267  00000+0  00000+0 0  9995
2 55264   2.4266  81.2824 0001576  73.6047 293.5672  0.99149102 12120
ELEKTRO-L 4             
1 55506U 23016A   26198.71851905 -.00000068  00000+0  00000+0 0  9998
2 55506   0.1143 278.6047 0001551 257.1818 184.1945  1.00270712 12645
AMAZONAS NEXUS          
1 55508U 23017A   26198.54096127 -.00000292  00000+0  00000+0 0  9998
2 55508   0.0358  45.2576 0004430  42.1268 341.7092  1.00269616  7345
ZHONGXING-26            
1 55686U 23023A   26199.00540468 -.00000362  00000+0  00000+0 0  9994
2 55686   0.0630  71.5970 0003354  30.7455 320.5235  1.00269412 12535
LUCH-5X (OLYMP-K 2)     
1 55841U 23031A   26198.77258358  .00000023  00000+0  00000+0 0  9996
2 55841   0.0281  94.9892 0001133 207.6590 333.0511  1.00279165 12240
GAOFEN-13 02            
1 55912U 23036A   26199.15269822 -.00000226  00000+0  00000+0 0  9997
2 55912   1.0288   4.9726 0003646 337.7577 156.4589  1.00273927 12405
SES-18                  
1 55970U 23038A   26199.23439237 -.00000109  00000+0  00000+0 0  9991
2 55970   0.0457 246.5578 0000785 312.8113  77.9469  1.00270582 12415
SES-19                  
1 55971U 23038B   26199.22683583  .00000080  00000+0  00000+0 0  9993
2 55971   0.0493 266.6484 0001679 215.7294 120.3946  1.00271848 12407
INTELSAT 40E (IS-40E)   
1 56174U 23052A   26198.96273425 -.00000183  00000+0  00000+0 0  9990
2 56174   0.0136  93.3522 0002303  50.4952  47.5079  1.00271641 12133
VIASAT-3 F1             
1 56370U 23060A   26199.24831432  .00000000  00000+0  00000+0 0  9994
2 56370   0.0127  36.4787 0000628  53.9958 206.0169  1.00271377 11748
ARCTURUS                
1 56371U 23060B   26199.00107133 -.00000357  00000+0  00000+0 0  9999
2 56371   2.8509  79.5564 0001158 132.5216 186.3980  1.00593433 11767
GS-1                    
1 56372U 23060C   26198.78457875 -.00000232  00000+0  00000+0 0  9997
2 56372   2.8015  79.4677 0003344 280.0809 307.7517  1.00266033  7842
BEIDOU-3 G4             
1 56564U 23066A   26199.29364119 -.00000289  00000+0  00000+0 0  9993
2 56564   0.4580 339.8752 0004977 185.1329  16.8692  1.00271695 11700
ARABSAT-7B (BADR-8)     
1 56757U 23075A   26199.27102110  .00000136  00000+0  00000+0 0  9996
2 56757   0.0734  30.3192 0003341   1.7363  27.5764  1.00270565 11420
NVS-01 (IRNSS-1J)       
1 56759U 23076A   26199.29156119 -.00000343  00000+0  00000+0 0  9990
2 56759   2.0942 242.9282 0003064  20.1091 267.4536  1.00277236 11425
NUSANTARA TIGA (SATRIA) 
1 57045U 23086A   26198.54697394 -.00000245  00000+0  00000+0 0  9993
2 57045   0.0360  16.4967 0002101 320.1785 301.5827  1.00268024 10061
H2SAT (HEINRICH HERTZ)  
1 57213U 23093A   26199.09628100 -.00000007  00000+0  00000+0 0  9994
2 57213   0.0259 101.2408 0000168  31.9153 198.0918  1.00270990 11229
SYRACUSE 4B             
1 57214U 23093B   26199.10183615 -.00000062  00000+0  00000+0 0  9995
2 57214   0.0189  56.3024 0000241 200.5939  69.2046  1.00271740  7279
